[{"OBJECT_NAME":"COSMOS 2251 DEB","OBJECT_ID":"1993-036BUX","EPOCH":"2026-02-23T12:09:13.868064","MEAN_MOTION":14.41801815,"ECCENTRICITY":0.00164408,"INCLINATION":74.0313,"RA_OF_ASC_NODE":113.9714,"ARG_OF_PERICENTER":191.9106,"MEAN_ANOMALY":168.1664,"EPHEMERIS_TYPE":0,"CLASSIFICATION_TYPE":"U","NORAD_CAT_ID":40218,"ELEMENT_SET_NO":999,"REV_AT_EPOCH":59910,"BSTAR":0.00028392654,"MEAN_MOTION_DOT":9.03e-6,"MEAN_MOTION_DDOT":0},{"OBJECT_NAME":"COSMOS 2251 DEB","OBJECT_ID":"1993-036BVC","EPOCH":"2026-03-05T14:08:30.018048","MEAN_MOTION":15.15743553,"ECCENTRICITY":0.0010988,"INCLINATION":73.9322,"RA_OF_ASC_NODE":276.8454,"ARG_OF_PERICENTER":107.5903,"MEAN_ANOMALY":284.4581,"EPHEMERIS_TYPE":0,"CLASSIFICATION_TYPE":"U","NORAD_CAT_ID":40223,"ELEMENT_SET_NO":999,"REV_AT_EPOCH":60624,"BSTAR":0.0059612,"MEAN_MOTION_DOT":0.00115667,"MEAN_MOTION_DDOT":0},{"OBJECT_NAME":"COSMOS 2251 DEB","OBJECT_ID":"1993-036BVH","EPOCH":"2026-02-18T05:16:17.105952","MEAN_MOTION":14.41164378,"ECCENTRICITY":0.0023166,"INCLINATION":74.0556,"RA_OF_ASC_NODE":135.7744,"ARG_OF_PERICENTER":187.3053,"MEAN_ANOMALY":204.016,"EPHEMERIS_TYPE":0,"CLASSIFICATION_TYPE":"U","NORAD_CAT_ID":40228,"ELEMENT_SET_NO":999,"REV_AT_EPOCH":59893,"BSTAR":0.00028362,"MEAN_MOTION_DOT":8.91e-6,"MEAN_MOTION_DDOT":0},{"OBJECT_NAME":"COSMOS 2251 DEB","OBJECT_ID":"1993-036BVK","EPOCH":"2026-02-21T19:30:35.054208","MEAN_MOTION":14.49812998,"ECCENTRICITY":0.00159873,"INCLINATION":74.0433,"RA_OF_ASC_NODE":93.591,"ARG_OF_PERICENTER":141.4165,"MEAN_ANOMALY":336.738,"EPHEMERIS_TYPE":0,"CLASSIFICATION_TYPE":"U","NORAD_CAT_ID":40230,"ELEMENT_SET_NO":999,"REV_AT_EPOCH":60001,"BSTAR":0.00049130745,"MEAN_MOTION_DOT":1.871e-5,"MEAN_MOTION_DDOT":0},{"OBJECT_NAME":"COSMOS 2251 DEB","OBJECT_ID":"1993-036BVN","EPOCH":"2026-03-03T17:21:05.359680","MEAN_MOTION":14.59412531,"ECCENTRICITY":0.00442671,"INCLINATION":73.9399,"RA_OF_ASC_NODE":307.9303,"ARG_OF_PERICENTER":2.4271,"MEAN_ANOMALY":357.7099,"EPHEMERIS_TYPE":0,"CLASSIFICATION_TYPE":"U","NORAD_CAT_ID":40233,"ELEMENT_SET_NO":999,"REV_AT_EPOCH":60318,"BSTAR":0.0011841882,"MEAN_MOTION_DOT":5.661e-5,"MEAN_MOTION_DDOT":0},{"OBJECT_NAME":"COSMOS 2251 DEB","OBJECT_ID":"1993-036BVR","EPOCH":"2026-03-05T04:29:31.956288","MEAN_MOTION":13.24823576,"ECCENTRICITY":0.05376342,"INCLINATION":73.5409,"RA_OF_ASC_NODE":13.7745,"ARG_OF_PERICENTER":246.6236,"MEAN_ANOMALY":107.7448,"EPHEMERIS_TYPE":0,"CLASSIFICATION_TYPE":"U","NORAD_CAT_ID":40236,"ELEMENT_SET_NO":999,"REV_AT_EPOCH":54716,"BSTAR":0.00078568703,"MEAN_MOTION_DOT":7.14e-6,"MEAN_MOTION_DDOT":0},{"OBJECT_NAME":"COSMOS 2251 DEB","OBJECT_ID":"1993-036BVT","EPOCH":"2026-02-13T03:10:30.378720","MEAN_MOTION":13.25406926,"ECCENTRICITY":0.05513162,"INCLINATION":73.9903,"RA_OF_ASC_NODE":327.7425,"ARG_OF_PERICENTER":287.7885,"MEAN_ANOMALY":66.3802,"EPHEMERIS_TYPE":0,"CLASSIFICATION_TYPE":"U","NORAD_CAT_ID":40238,"ELEMENT_SET_NO":999,"REV_AT_EPOCH":54863,"BSTAR":0.0010336121,"MEAN_MOTION_DOT":1.001e-5,"MEAN_MOTION_DDOT":0},{"OBJECT_NAME":"COSMOS 2251 DEB","OBJECT_ID":"1993-036BVU","EPOCH":"2026-02-05T02:36:45.829728","MEAN_MOTION":14.62250063,"ECCENTRICITY":0.00869096,"INCLINATION":74.0297,"RA_OF_ASC_NODE":171.6906,"ARG_OF_PERICENTER":270.6387,"MEAN_ANOMALY":268.1502,"EPHEMERIS_TYPE":0,"CLASSIFICATION_TYPE":"U","NORAD_CAT_ID":40239,"ELEMENT_SET_NO":999,"REV_AT_EPOCH":60405,"BSTAR":0.00055490899,"MEAN_MOTION_DOT":2.921e-5,"MEAN_MOTION_DDOT":0},{"OBJECT_NAME":"COSMOS 2251 DEB","OBJECT_ID":"1993-036BVV","EPOCH":"2026-02-28T12:59:10.651200","MEAN_MOTION":14.68650337,"ECCENTRICITY":0.00168718,"INCLINATION":74.0421,"RA_OF_ASC_NODE":257.1398,"ARG_OF_PERICENTER":337.6218,"MEAN_ANOMALY":53.0139,"EPHEMERIS_TYPE":0,"CLASSIFICATION_TYPE":"U","NORAD_CAT_ID":40792,"ELEMENT_SET_NO":999,"REV_AT_EPOCH":64326,"BSTAR":0.00088443704,"MEAN_MOTION_DOT":5.127e-5,"MEAN_MOTION_DDOT":0},{"OBJECT_NAME":"COSMOS 2251 DEB","OBJECT_ID":"1993-036BVX","EPOCH":"2026-02-27T02:46:25.272192","MEAN_MOTION":15.00605669,"ECCENTRICITY":0.00077962,"INCLINATION":73.9694,"RA_OF_ASC_NODE":329.1878,"ARG_OF_PERICENTER":113.5437,"MEAN_ANOMALY":312.9579,"EPHEMERIS_TYPE":0,"CLASSIFICATION_TYPE":"U","NORAD_CAT_ID":40794,"ELEMENT_SET_NO":999,"REV_AT_EPOCH":63067,"BSTAR":0.0031465727,"MEAN_MOTION_DOT":0.0003998,"MEAN_MOTION_DDOT":0},{"OBJECT_NAME":"COSMOS 2251 DEB","OBJECT_ID":"1993-036BVZ","EPOCH":"2026-03-05T00:56:00.979008","MEAN_MOTION":14.83036639,"ECCENTRICITY":0.00524286,"INCLINATION":74.0151,"RA_OF_ASC_NODE":339.2252,"ARG_OF_PERICENTER":96.1915,"MEAN_ANOMALY":281.2414,"EPHEMERIS_TYPE":0,"CLASSIFICATION_TYPE":"U","NORAD_CAT_ID":40796,"ELEMENT_SET_NO":999,"REV_AT_EPOCH":77378,"BSTAR":0.0010636969,"MEAN_MOTION_DOT":8.84e-5,"MEAN_MOTION_DDOT":0},{"OBJECT_NAME":"COSMOS 2251 DEB","OBJECT_ID":"1993-036BWC","EPOCH":"2026-03-01T08:05:57.545376","MEAN_MOTION":14.97612795,"ECCENTRICITY":0.01162666,"INCLINATION":73.926,"RA_OF_ASC_NODE":298.2127,"ARG_OF_PERICENTER":162.8882,"MEAN_ANOMALY":197.6278,"EPHEMERIS_TYPE":0,"CLASSIFICATION_TYPE":"U","NORAD_CAT_ID":40799,"ELEMENT_SET_NO":999,"REV_AT_EPOCH":51153,"BSTAR":0.00042095283,"MEAN_MOTION_DOT":5.616e-5,"MEAN_MOTION_DDOT":0},{"OBJECT_NAME":"COSMOS 2251 DEB","OBJECT_ID":"1993-036BWF","EPOCH":"2026-02-28T12:20:45.545856","MEAN_MOTION":14.78520475,"ECCENTRICITY":0.00593111,"INCLINATION":74.0429,"RA_OF_ASC_NODE":0.3071,"ARG_OF_PERICENTER":78.683,"MEAN_ANOMALY":282.1002,"EPHEMERIS_TYPE":0,"CLASSIFICATION_TYPE":"U","NORAD_CAT_ID":40802,"ELEMENT_SET_NO":999,"REV_AT_EPOCH":65558,"BSTAR":0.00074156774,"MEAN_MOTION_DOT":5.549e-5,"MEAN_MOTION_DDOT":0},{"OBJECT_NAME":"COSMOS 2251 DEB","OBJECT_ID":"1993-036BWG","EPOCH":"2026-03-05T22:35:09.329280","MEAN_MOTION":14.52057278,"ECCENTRICITY":0.00320669,"INCLINATION":74.0098,"RA_OF_ASC_NODE":254.955,"ARG_OF_PERICENTER":90.7107,"MEAN_ANOMALY":269.7729,"EPHEMERIS_TYPE":0,"CLASSIFICATION_TYPE":"U","NORAD_CAT_ID":40803,"ELEMENT_SET_NO":999,"REV_AT_EPOCH":59960,"BSTAR":0.00032956601,"MEAN_MOTION_DOT":1.314e-5,"MEAN_MOTION_DDOT":0},{"OBJECT_NAME":"COSMOS 2251 DEB","OBJECT_ID":"1993-036BWM","EPOCH":"2026-03-06T05:08:53.310624","MEAN_MOTION":14.69227651,"ECCENTRICITY":0.00074545,"INCLINATION":74.0459,"RA_OF_ASC_NODE":344.1063,"ARG_OF_PERICENTER":344.8112,"MEAN_ANOMALY":165.9263,"EPHEMERIS_TYPE":0,"CLASSIFICATION_TYPE":"U","NORAD_CAT_ID":40808,"ELEMENT_SET_NO":999,"REV_AT_EPOCH":64844,"BSTAR":0.0016977064,"MEAN_MOTION_DOT":9.993e-5,"MEAN_MOTION_DDOT":0},{"OBJECT_NAME":"COSMOS 2251 DEB","OBJECT_ID":"1993-036BWP","EPOCH":"2026-03-05T13:38:32.270784","MEAN_MOTION":14.59347708,"ECCENTRICITY":0.0017211,"INCLINATION":74.0336,"RA_OF_ASC_NODE":276.9195,"ARG_OF_PERICENTER":42.6273,"MEAN_ANOMALY":317.6224,"EPHEMERIS_TYPE":0,"CLASSIFICATION_TYPE":"U","NORAD_CAT_ID":40810,"ELEMENT_SET_NO":999,"REV_AT_EPOCH":62891,"BSTAR":0.00075561,"MEAN_MOTION_DOT":3.554e-5,"MEAN_MOTION_DDOT":0}]
